{"type": "FeatureCollection", "features": [ {"type": "Feature", "properties": {"norad_id": 43648, "name": "BEIDOU-3 M15 (C34)", "group": "gnss", "lat": 49.28334359952088, "lon": 3.0030998118200127, "alt_km": 21514.807377160185, "timestamp": "2025-12-19T08:58:49.581987+00:00", "meta": {"OBJECT_NAME": "BEIDOU-3 M15 (C34)", "OBJECT_ID": "2018-078B", "EPOCH": "2025-12-18T04:44:16.550592", "MEAN_MOTION": 1.86232281, "ECCENTRICITY": 0.00039569, "INCLINATION": 54.2524, "RA_OF_ASC_NODE": 306.3307, "ARG_OF_PERICENTER": 20.2527, "MEAN_ANOMALY": 339.7508, "EPHEMERIS_TYPE": 0, "CLASSIFICATION_TYPE": "U", "NORAD_CAT_ID": 43648, "ELEMENT_SET_NO": 999, "REV_AT_EPOCH": 4880, "BSTAR": 0, "MEAN_MOTION_DOT": -8.5e-07, "MEAN_MOTION_DDOT": 0}, "tle": {"line1": "1 43648U 18078B   25352.19741378 -.00000085  00000+0  00000+0 0  9998", "line2": "2 43648  54.2524 306.3307 0003956  20.2527 339.7508  1.86232281 48800"}}, "geometry": {"type": "Point", "coordinates": [3.0030998118200127, 49.28334359952088]}}, {"type": "Feature", "properties": {"norad_id": 43683, "name": "BEIDOU-3 G1 (C59)", "group": "gnss", "lat": -2.5816409125887003, "lon": 2.9354202828765517, "alt_km": 35792.97832742084, "timestamp": "2025-12-19T08:58:49.581999+00:00", "meta": {"OBJECT_NAME": "BEIDOU-3 G1 (C59)", "OBJECT_ID": "2018-085A", "EPOCH": "2025-12-18T22:31:16.603104", "MEAN_MOTION": 1.00269058, "ECCENTRICITY": 0.00016284, "INCLINATION": 2.6228, "RA_OF_ASC_NODE": 102.7865, "ARG_OF_PERICENTER": 47.4963, "MEAN_ANOMALY": 55.3654, "EPHEMERIS_TYPE": 0, "CLASSIFICATION_TYPE": "U", "NORAD_CAT_ID": 43683, "ELEMENT_SET_NO": 999, "REV_AT_EPOCH": 2625, "BSTAR": 0, "MEAN_MOTION_DOT": -2.55e-06, "MEAN_MOTION_DDOT": 0}, "tle": {"line1": "1 43683U 18085A   25352.93838661 -.00000255  00000+0  00000+0 0  9998", "line2": "2 43683   2.6228 102.7865 0001628  47.4963  55.3654  1.00269058 26259"}}, "geometry": {"type": "Point", "coordinates": [2.9354202828765517, -2.5816409125887003]}}, {"type": "Feature", "properties": {"norad_id": 43687, "name": "COSMOS 2529 (757)", "group": "gnss", "lat": -52.7099144614299, "lon": 159.40660609356357, "alt_km": 19122.964856578797, "timestamp": "2025-12-19T08:58:49.582014+00:00", "meta": {"OBJECT_NAME": "COSMOS 2529 (757)", "OBJECT_ID": "2018-086A", "EPOCH": "2025-12-18T12:23:46.661856", "MEAN_MOTION": 2.13102105, "ECCENTRICITY": 0.00070461, "INCLINATION": 64.2922, "RA_OF_ASC_NODE": 198.6932, "ARG_OF_PERICENTER": 253.6593, "MEAN_ANOMALY": 106.345, "EPHEMERIS_TYPE": 0, "CLASSIFICATION_TYPE": "U", "NORAD_CAT_ID": 43687, "ELEMENT_SET_NO": 999, "REV_AT_EPOCH": 5543, "BSTAR": 0, "MEAN_MOTION_DOT": 1.09e-06, "MEAN_MOTION_DDOT": 0}, "tle": {"line1": "1 43687U 18086A   25352.51651229  .00000109  00000+0  00000+0 0  9997", "line2": "2 43687  64.2922 198.6932 0007046 253.6593 106.3450  2.13102105 55434"}}, "geometry": {"type": "Point", "coordinates": [159.40660609356357, -52.7099144614299]}}, {"type": "Feature", "properties": {"norad_id": 43706, "name": "BEIDOU-3 M17 (C36)", "group": "gnss", "lat": -29.507110430046335, "lon": 164.25585512197546, "alt_km": 21515.51067596424, "timestamp": "2025-12-19T08:58:49.582026+00:00", "meta": {"OBJECT_NAME": "BEIDOU-3 M17 (C36)", "OBJECT_ID": "2018-093A", "EPOCH": "2025-12-15T07:56:44.520576", "MEAN_MOTION": 1.86228523, "ECCENTRICITY": 0.00061371, "INCLINATION": 54.1729, "RA_OF_ASC_NODE": 188.5337, "ARG_OF_PERICENTER": 307.6759, "MEAN_ANOMALY": 184.25, "EPHEMERIS_TYPE": 0, "CLASSIFICATION_TYPE": "U", "NORAD_CAT_ID": 43706, "ELEMENT_SET_NO": 999, "REV_AT_EPOCH": 4811, "BSTAR": 0, "MEAN_MOTION_DOT": 1.13e-06, "MEAN_MOTION_DDOT": 0}, "tle": {"line1": "1 43706U 18093A   25349.33107084  .00000113  00000+0  00000+0 0  9993", "line2": "2 43706  54.1729 188.5337 0006137 307.6759 184.2500  1.86228523 48110"}}, "geometry": {"type": "Point", "coordinates": [164.25585512197546, -29.507110430046335]}}, {"type": "Feature", "properties": {"norad_id": 43707, "name": "BEIDOU-3 M18 (C37)", "group": "gnss", "lat": 41.89014596408965, "lon": -131.19032206099976, "alt_km": 21515.13785225854, "timestamp": "2025-12-19T08:58:49.582036+00:00", "meta": {"OBJECT_NAME": "BEIDOU-3 M18 (C37)", "OBJECT_ID": "2018-093B", "EPOCH": "2025-12-16T14:33:42.784416", "MEAN_MOTION": 1.8622677, "ECCENTRICITY": 0.00063186, "INCLINATION": 54.1735, "RA_OF_ASC_NODE": 188.4822, "ARG_OF_PERICENTER": 353.2257, "MEAN_ANOMALY": 6.8349, "EPHEMERIS_TYPE": 0, "CLASSIFICATION_TYPE": "U", "NORAD_CAT_ID": 43707, "ELEMENT_SET_NO": 999, "REV_AT_EPOCH": 4813, "BSTAR": 0, "MEAN_MOTION_DOT": 1.15e-06, "MEAN_MOTION_DDOT": 0}, "tle": {"line1": "1 43707U 18093B   25350.60674519  .00000115  00000+0  00000+0 0  9990", "line2": "2 43707  54.1735 188.4822 0006318 353.2257   6.8349  1.86226770 48131"}}, "geometry": {"type": "Point", "coordinates": [-131.19032206099976, 41.89014596408965]}}, {"type": "Feature", "properties": {"norad_id": 43873, "name": "GPS BIII-1  (PRN 04)", "group": "gnss", "lat": -52.47312421962815, "lon": -17.613659906808106, "alt_km": 20136.827289060013, "timestamp": "2025-12-19T08:58:49.582048+00:00", "meta": {"OBJECT_NAME": "GPS BIII-1  (PRN 04)", "OBJECT_ID": "2018-109A", "EPOCH": "2025-12-18T12:57:04.857120", "MEAN_MOTION": 2.00553911, "ECCENTRICITY": 0.0037524, "INCLINATION": 55.5701, "RA_OF_ASC_NODE": 99.3182, "ARG_OF_PERICENTER": 195.2606, "MEAN_ANOMALY": 175.7707, "EPHEMERIS_TYPE": 0, "CLASSIFICATION_TYPE": "U", "NORAD_CAT_ID": 43873, "ELEMENT_SET_NO": 999, "REV_AT_EPOCH": 5145, "BSTAR": 0, "MEAN_MOTION_DOT": -3e-07, "MEAN_MOTION_DDOT": 0}, "tle": {"line1": "1 43873U 18109A   25352.53963955 -.00000030  00000+0  00000+0 0  9998", "line2": "2 43873  55.5701  99.3182 0037524 195.2606 175.7707  2.00553911 51457"}}, "geometry": {"type": "Point", "coordinates": [-17.613659906808106, -52.47312421962815]}}, {"type": "Feature", "properties": {"norad_id": 44204, "name": "BEIDOU-3 IGSO-1 (C38)", "group": "gnss", "lat": -50.01152131645525, "lon": -7.498345357697748, "alt_km": 35768.81927511385, "timestamp": "2025-12-19T08:58:49.582059+00:00", "meta": {"OBJECT_NAME": "BEIDOU-3 IGSO-1 (C38)", "OBJECT_ID": "2019-023A", "EPOCH": "2025-11-19T14:15:02.708640", "MEAN_MOTION": 1.00252177, "ECCENTRICITY": 0.0026966, "INCLINATION": 58.4003, "RA_OF_ASC_NODE": 39.8168, "ARG_OF_PERICENTER": 221.2202, "MEAN_ANOMALY": 126.9723, "EPHEMERIS_TYPE": 0, "CLASSIFICATION_TYPE": "U", "NORAD_CAT_ID": 44204, "ELEMENT_SET_NO": 999, "REV_AT_EPOCH": 510, "BSTAR": 0, "MEAN_MOTION_DOT": -2.26e-06, "MEAN_MOTION_DDOT": 0}, "tle": {"line1": "1 44204U 19023A   25323.59378135 -.00000226  00000+0  00000+0 0  9994", "line2": "2 44204  58.4003  39.8168 0026966 221.2202 126.9723  1.00252177  5102"}}, "geometry": {"type": "Point", "coordinates": [-7.498345357697748, -50.01152131645525]}}, {"type": "Feature", "properties": {"norad_id": 44231, "name": "BEIDOU-2 G8 (C01)", "group": "gnss", "lat": -1.541795992129654, "lon": 7.414003898332772, "alt_km": 35756.82524654239, "timestamp": "2025-12-19T08:58:49.582075+00:00", "meta": {"OBJECT_NAME": "BEIDOU-2 G8 (C01)", "OBJECT_ID": "2019-027A", "EPOCH": "2025-12-18T22:32:31.483392", "MEAN_MOTION": 1.00276741, "ECCENTRICITY": 0.00081204, "INCLINATION": 1.6771, "RA_OF_ASC_NODE": 74.7239, "ARG_OF_PERICENTER": 258.3755, "MEAN_ANOMALY": 237.2498, "EPHEMERIS_TYPE": 0, "CLASSIFICATION_TYPE": "U", "NORAD_CAT_ID": 44231, "ELEMENT_SET_NO": 999, "REV_AT_EPOCH": 2427, "BSTAR": 0, "MEAN_MOTION_DOT": -2.23e-06, "MEAN_MOTION_DDOT": 0}, "tle": {"line1": "1 44231U 19027A   25352.93925328 -.00000223  00000+0  00000+0 0  9997", "line2": "2 44231   1.6771  74.7239 0008120 258.3755 237.2498  1.00276741 24274"}}, "geometry": {"type": "Point", "coordinates": [7.414003898332772, -1.541795992129654]}}, {"type": "Feature", "properties": {"norad_id": 44299, "name": "COSMOS 2534 (758)", "group": "gnss", "lat": 59.22749855149547, "lon": -107.55181962045343, "alt_km": 19142.285910699877, "timestamp": "2025-12-19T08:58:49.582088+00:00", "meta": {"OBJECT_NAME": "COSMOS 2534 (758)", "OBJECT_ID": "2019-030A", "EPOCH": "2025-12-18T18:30:09.690336", "MEAN_MOTION": 2.13102412, "ECCENTRICITY": 0.0008748, "INCLINATION": 64.3658, "RA_OF_ASC_NODE": 198.6898, "ARG_OF_PERICENTER": 284.2192, "MEAN_ANOMALY": 45.4012, "EPHEMERIS_TYPE": 0, "CLASSIFICATION_TYPE": "U", "NORAD_CAT_ID": 44299, "ELEMENT_SET_NO": 999, "REV_AT_EPOCH": 5107, "BSTAR": 0, "MEAN_MOTION_DOT": 1.08e-06, "MEAN_MOTION_DDOT": 0}, "tle": {"line1": "1 44299U 19030A   25352.77094549  .00000108  00000+0  00000+0 0  9990", "line2": "2 44299  64.3658 198.6898 0008748 284.2192  45.4012  2.13102412 51071"}}, "geometry": {"type": "Point", "coordinates": [-107.55181962045343, 59.22749855149547]}}, {"type": "Feature", "properties": {"norad_id": 44337, "name": "BEIDOU-3 IGSO-2 (C39)", "group": "gnss", "lat": -1.5028004618796016, "lon": -18.527345091742497, "alt_km": 35639.59189280193, "timestamp": "2025-12-19T08:58:49.582103+00:00", "meta": {"OBJECT_NAME": "BEIDOU-3 IGSO-2 (C39)", "OBJECT_ID": "2019-035A", "EPOCH": "2025-12-18T20:43:04.464768", "MEAN_MOTION": 1.00269481, "ECCENTRICITY": 0.00375097, "INCLINATION": 55.2274, "RA_OF_ASC_NODE": 160.4476, "ARG_OF_PERICENTER": 202.2689, "MEAN_ANOMALY": 155.2054, "EPHEMERIS_TYPE": 0, "CLASSIFICATION_TYPE": "U", "NORAD_CAT_ID": 44337, "ELEMENT_SET_NO": 999, "REV_AT_EPOCH": 2385, "BSTAR": 0, "MEAN_MOTION_DOT": -5.3e-07, "MEAN_MOTION_DDOT": 0}, "tle": {"line1": "1 44337U 19035A   25352.86324612 -.00000053  00000+0  00000+0 0  9995", "line2": "2 44337  55.2274 160.4476 0037509 202.2689 155.2054  1.00269481 23850"}}, "geometry": {"type": "Point", "coordinates": [-18.527345091742497, -1.5028004618796016]}}]}